[{"OBJECT_NAME":"STARLINK-5051","OBJECT_ID":"2022-119AG","EPOCH":"2026-03-09T21:45:19.808064","MEAN_MOTION":15.08832443,"ECCENTRICITY":0.00010888,"INCLINATION":53.217,"RA_OF_ASC_NODE":292.8016,"ARG_OF_PERICENTER":82.5605,"MEAN_ANOMALY":277.5511,"EPHEMERIS_TYPE":0,"CLASSIFICATION_TYPE":"U","NORAD_CAT_ID":53916,"ELEMENT_SET_NO":999,"REV_AT_EPOCH":19215,"BSTAR":0.00015012341,"MEAN_MOTION_DOT":2.102e-5,"MEAN_MOTION_DDOT":0},{"OBJECT_NAME":"LEMUR-2-THERMORAPTOR","OBJECT_ID":"2025-061D","EPOCH":"2026-03-09T21:59:50.013312","MEAN_MOTION":15.13256334,"ECCENTRICITY":0.00176188,"INCLINATION":97.562,"RA_OF_ASC_NODE":45.6468,"ARG_OF_PERICENTER":235.5571,"MEAN_ANOMALY":124.3996,"EPHEMERIS_TYPE":0,"CLASSIFICATION_TYPE":"U","NORAD_CAT_ID":63354,"ELEMENT_SET_NO":999,"REV_AT_EPOCH":5259,"BSTAR":0.00030402789,"MEAN_MOTION_DOT":5.359e-5,"MEAN_MOTION_DDOT":0}]
